ELYSIUM STAR 2 & LFF    
1 43760U 18099C   24242.73656920  .00106249  00000+0  30403-2 0  9992
2 43760  97.5092 311.1550 0003252   6.5019 353.6266 15.35526679314483
